[{"OBJECT_NAME":"OBJECT V","OBJECT_ID":"2023-085V","EPOCH":"2026-03-09T21:44:00.165408","MEAN_MOTION":15.30745852,"ECCENTRICITY":0.00069081,"INCLINATION":97.4843,"RA_OF_ASC_NODE":179.3833,"ARG_OF_PERICENTER":71.0503,"MEAN_ANOMALY":289.1485,"EPHEMERIS_TYPE":0,"CLASSIFICATION_TYPE":"U","NORAD_CAT_ID":57023,"ELEMENT_SET_NO":999,"REV_AT_EPOCH":15149,"BSTAR":0.00067780507,"MEAN_MOTION_DOT":0.00020109,"MEAN_MOTION_DDOT":0},{"OBJECT_NAME":"STARLINK-34626","OBJECT_ID":"2025-167E","EPOCH":"2026-03-09T22:48:23.488704","MEAN_MOTION":15.30163254,"ECCENTRICITY":0.00014881,"INCLINATION":53.1604,"RA_OF_ASC_NODE":25.2534,"ARG_OF_PERICENTER":79.2368,"MEAN_ANOMALY":280.88,"EPHEMERIS_TYPE":0,"CLASSIFICATION_TYPE":"U","NORAD_CAT_ID":65082,"ELEMENT_SET_NO":999,"REV_AT_EPOCH":3352,"BSTAR":0.00094352376,"MEAN_MOTION_DOT":0.00027658,"MEAN_MOTION_DDOT":0}]
